start=new Date('2023-01-24T00:00:00.000Z').valueOf();
sats=[{"CENTER_NAME":"EARTH","LAUNCH_DATE":"2022-08-10","PERIAPSIS":"538.684","ECCENTRICITY":"0.00015260","RCS_SIZE":"LARGE","DECAY_DATE":null,"SITE":"AFETR","EPOCH":"2023-01-23T12:46:14.456064","ARG_OF_PERICENTER":"57.7456","MEAN_ELEMENT_THEORY":"SGP4","TLE_LINE1":"1 53389U 22097B   23023.53211176 -.00001886  00000-0 -10042-3 0  9999","EPHEMERIS_TYPE":"0","SEMIMAJOR_AXIS":"6917.875","ELEMENT_SET_NO":"999","MEAN_MOTION_DOT":"-0.00001886","MEAN_ANOMALY":"302.3684","INCLINATION":"53.2143","MEAN_MOTION":"15.08841922","RA_OF_ASC_NODE":"206.9848","OBJECT_ID":"2022-097B","TLE_LINE2":"2 53389  53.2143 206.9848 0001526  57.7456 302.3684 15.08841922 25747","APOAPSIS":"540.795","OBJECT_TYPE":"PAYLOAD","REV_AT_EPOCH":"2574","COUNTRY_CODE":"US","OBJECT_NAME":"STARLINK-4523","MEAN_MOTION_DDOT":"0.0000000000000","NORAD_CAT_ID":"53389","FILE":"3758820","CLASSIFICATION_TYPE":"U","BSTAR":"-0.00010042000000","PERIOD":"95.437","GP_ID":"223613936","TIME_SYSTEM":"UTC","REF_FRAME":"TEME"},{"CENTER_NAME":"EARTH","PERIAPSIS":"538.511","LAUNCH_DATE":"2022-08-10","ECCENTRICITY":"0.00017680","EPOCH":"2023-01-23T19:13:04.559808","ARG_OF_PERICENTER":"65.4367","DECAY_DATE":null,"RCS_SIZE":"LARGE","SITE":"AFETR","TLE_LINE1":"1 53390U 22097C   23023.80074722  .00000473  00000-0  47816-4 0  9994","EPHEMERIS_TYPE":"0","SEMIMAJOR_AXIS":"6917.869","ELEMENT_SET_NO":"999","MEAN_MOTION_DOT":"0.00000473","MEAN_ELEMENT_THEORY":"SGP4","INCLINATION":"53.2147","MEAN_MOTION":"15.08843599","RA_OF_ASC_NODE":"205.7823","OBJECT_ID":"2022-097C","MEAN_ANOMALY":"294.6810","COUNTRY_CODE":"US","REV_AT_EPOCH":"2578","TLE_LINE2":"2 53390  53.2147 205.7823 0001768  65.4367 294.6810 15.08843599 25788","APOAPSIS":"540.957","OBJECT_TYPE":"PAYLOAD","OBJECT_NAME":"STARLINK-4517","FILE":"3759172","NORAD_CAT_ID":"53390","CLASSIFICATION_TYPE":"U","BSTAR":"0.00004781600000","MEAN_MOTION_DDOT":"0.0000000000000","TIME_SYSTEM":"UTC","REF_FRAME":"TEME","PERIOD":"95.437","GP_ID":"223621389"},{"MEAN_ANOMALY":"276.0148","OBJECT_ID":"2022-097D","RA_OF_ASC_NODE":"205.8155","MEAN_MOTION":"15.08837968","INCLINATION":"53.2129","MEAN_ELEMENT_THEORY":"SGP4","MEAN_MOTION_DOT":"-0.00000059","SEMIMAJOR_AXIS":"6917.887","ELEMENT_SET_NO":"999","EPHEMERIS_TYPE":"0","TLE_LINE1":"1 53391U 22097D   23023.79338568 -.00000059  00000-0  14401-4 0  9999","RCS_SIZE":"LARGE","DECAY_DATE":null,"SITE":"AFETR","ARG_OF_PERICENTER":"84.1067","EPOCH":"2023-01-23T19:02:28.522752","ECCENTRICITY":"0.00019520","LAUNCH_DATE":"2022-08-10","PERIAPSIS":"538.401","CENTER_NAME":"EARTH","GP_ID":"223621396","PERIOD":"95.438","REF_FRAME":"TEME","TIME_SYSTEM":"UTC","MEAN_MOTION_DDOT":"0.0000000000000","BSTAR":"0.00001440100000","CLASSIFICATION_TYPE":"U","FILE":"3759172","NORAD_CAT_ID":"53391","OBJECT_NAME":"STARLINK-4521","OBJECT_TYPE":"PAYLOAD","APOAPSIS":"541.102","TLE_LINE2":"2 53391  53.2129 205.8155 0001952  84.1067 276.0148 15.08837968 25789","COUNTRY_CODE":"US","REV_AT_EPOCH":"2578"},{"TLE_LINE1":"1 53392U 22097E   23023.78603220  .00002425  00000-0  17043-3 0  9991","MEAN_MOTION_DOT":"0.00002425","ELEMENT_SET_NO":"999","SEMIMAJOR_AXIS":"6917.875","EPHEMERIS_TYPE":"0","MEAN_ELEMENT_THEORY":"SGP4","MEAN_MOTION":"15.08841728","INCLINATION":"53.2145","OBJECT_ID":"2022-097E","RA_OF_ASC_NODE":"205.8445","MEAN_ANOMALY":"294.1453","PERIAPSIS":"538.500","LAUNCH_DATE":"2022-08-10","CENTER_NAME":"EARTH","ECCENTRICITY":"0.00017920","EPOCH":"2023-01-23T18:51:53.182080","ARG_OF_PERICENTER":"65.9727","DECAY_DATE":null,"SITE":"AFETR","RCS_SIZE":"LARGE","NORAD_CAT_ID":"53392","FILE":"3759172","BSTAR":"0.00017043000000","CLASSIFICATION_TYPE":"U","MEAN_MOTION_DDOT":"0.0000000000000","REF_FRAME":"TEME","TIME_SYSTEM":"UTC","PERIOD":"95.437","GP_ID":"223621390","COUNTRY_CODE":"US","REV_AT_EPOCH":"2578","TLE_LINE2":"2 53392  53.2145 205.8445 0001792  65.9727 294.1453 15.08841728 25781","OBJECT_TYPE":"PAYLOAD","APOAPSIS":"540.980","OBJECT_NAME":"STARLINK-4535"},{"MEAN_MOTION_DDOT":"0.0000000000000","CLASSIFICATION_TYPE":"U","BSTAR":"0.00009378600000","FILE":"3758820","NORAD_CAT_ID":"53393","GP_ID":"223613640","PERIOD":"95.437","TIME_SYSTEM":"UTC","REF_FRAME":"TEME","APOAPSIS":"540.549","OBJECT_TYPE":"PAYLOAD","TLE_LINE2":"2 53393  53.2130 207.0148 0001167  77.7360 282.3763 15.08841235 25742","COUNTRY_CODE":"US","REV_AT_EPOCH":"2574","OBJECT_NAME":"STARLINK-4530","MEAN_ELEMENT_THEORY":"SGP4","ELEMENT_SET_NO":"999","SEMIMAJOR_AXIS":"6917.877","EPHEMERIS_TYPE":"0","MEAN_MOTION_DOT":"0.00001205","TLE_LINE1":"1 53393U 22097F   23023.52475237  .00001205  00000-0  93786-4 0  9993","MEAN_ANOMALY":"282.3763","OBJECT_ID":"2022-097F","RA_OF_ASC_NODE":"207.0148","INCLINATION":"53.2130","MEAN_MOTION":"15.08841235","ECCENTRICITY":"0.00011670","CENTER_NAME":"EARTH","LAUNCH_DATE":"2022-08-10","PERIAPSIS":"538.934","SITE":"AFETR","DECAY_DATE":null,"RCS_SIZE":"LARGE","ARG_OF_PERICENTER":"77.7360","EPOCH":"2023-01-23T12:35:38.604768"},{"REF_FRAME":"TEME","TIME_SYSTEM":"UTC","PERIOD":"95.438","GP_ID":"223613631","NORAD_CAT_ID":"53394","FILE":"3758820","BSTAR":"0.00011168000000","CLASSIFICATION_TYPE":"U","MEAN_MOTION_DDOT":"0.0000000000000","OBJECT_NAME":"STARLINK-4544","COUNTRY_CODE":"US","REV_AT_EPOCH":"2588","TLE_LINE2":"2 53394  53.2156 196.9559 0001592  89.7331 270.3843 15.08838539 25880","OBJECT_TYPE":"PAYLOAD","APOAPSIS":"540.851","MEAN_MOTION":"15.08838539","INCLINATION":"53.2156","RA_OF_ASC_NODE":"196.9559","OBJECT_ID":"2022-097G","MEAN_ANOMALY":"270.3843","TLE_LINE1":"1 53394U 22097G   23023.48612373  .00001490  00000-0  11168-3 0  9992","MEAN_MOTION_DOT":"0.00001490","SEMIMAJOR_AXIS":"6917.885","ELEMENT_SET_NO":"999","EPHEMERIS_TYPE":"0","MEAN_ELEMENT_THEORY":"SGP4","EPOCH":"2023-01-23T11:40:01.090272","ARG_OF_PERICENTER":"89.7331","RCS_SIZE":"LARGE","DECAY_DATE":null,"SITE":"AFETR","PERIAPSIS":"538.649","LAUNCH_DATE":"2022-08-10","CENTER_NAME":"EARTH","ECCENTRICITY":"0.00015920"},{"NORAD_CAT_ID":"53395","FILE":"3758198","BSTAR":"0.00001694700000","CLASSIFICATION_TYPE":"U","MEAN_MOTION_DDOT":"0.0000000000000","REF_FRAME":"TEME","TIME_SYSTEM":"UTC","PERIOD":"95.438","GP_ID":"223600265","REV_AT_EPOCH":"2563","COUNTRY_CODE":"US","TLE_LINE2":"2 53395  53.2136 210.3175 0001247  84.8672 275.2462 15.08839312 25639","OBJECT_TYPE":"PAYLOAD","APOAPSIS":"540.610","OBJECT_NAME":"STARLINK-4534","TLE_LINE1":"1 53395U 22097H   23022.78875332 -.00000018  00000-0  16947-4 0  9998","MEAN_MOTION_DOT":"-0.00000018","SEMIMAJOR_AXIS":"6917.882","ELEMENT_SET_NO":"999","EPHEMERIS_TYPE":"0","MEAN_ELEMENT_THEORY":"SGP4","MEAN_MOTION":"15.08839312","INCLINATION":"53.2136","RA_OF_ASC_NODE":"210.3175","OBJECT_ID":"2022-097H","MEAN_ANOMALY":"275.2462","LAUNCH_DATE":"2022-08-10","PERIAPSIS":"538.885","CENTER_NAME":"EARTH","ECCENTRICITY":"0.00012470","EPOCH":"2023-01-22T18:55:48.286848","ARG_OF_PERICENTER":"84.8672","DECAY_DATE":null,"RCS_SIZE":"LARGE","SITE":"AFETR"},{"REV_AT_EPOCH":"2574","COUNTRY_CODE":"US","TLE_LINE2":"2 53396  53.2150 207.1152 0002030  62.3210 297.7988 15.08839348 25748","APOAPSIS":"541.152","OBJECT_TYPE":"PAYLOAD","OBJECT_NAME":"STARLINK-4524","FILE":"3758823","NORAD_CAT_ID":"53396","CLASSIFICATION_TYPE":"U","BSTAR":"0.00009664500000","MEAN_MOTION_DDOT":"0.0000000000000","REF_FRAME":"TEME","TIME_SYSTEM":"UTC","PERIOD":"95.438","GP_ID":"223613652","CENTER_NAME":"EARTH","LAUNCH_DATE":"2022-08-10","PERIAPSIS":"538.343","ECCENTRICITY":"0.00020300","EPOCH":"2023-01-23T12:03:50.946336","ARG_OF_PERICENTER":"62.3210","SITE":"AFETR","DECAY_DATE":null,"RCS_SIZE":"LARGE","TLE_LINE1":"1 53396U 22097J   23023.50267299  .00001250  00000-0  96645-4 0  9998","ELEMENT_SET_NO":"999","SEMIMAJOR_AXIS":"6917.882","EPHEMERIS_TYPE":"0","MEAN_MOTION_DOT":"0.00001250","MEAN_ELEMENT_THEORY":"SGP4","INCLINATION":"53.2150","MEAN_MOTION":"15.08839348","RA_OF_ASC_NODE":"207.1152","OBJECT_ID":"2022-097J","MEAN_ANOMALY":"297.7988"},{"SEMIMAJOR_AXIS":"6917.886","EPHEMERIS_TYPE":"0","ELEMENT_SET_NO":"999","MEAN_MOTION_DOT":"0.00001441","TLE_LINE1":"1 53397U 22097K   23023.51371608  .00001441  00000-0  10862-3 0  9998","MEAN_ELEMENT_THEORY":"SGP4","OBJECT_ID":"2022-097K","RA_OF_ASC_NODE":"207.0712","INCLINATION":"53.2139","MEAN_MOTION":"15.08838022","MEAN_ANOMALY":"284.7171","ECCENTRICITY":"0.00017280","CENTER_NAME":"EARTH","LAUNCH_DATE":"2022-08-10","PERIAPSIS":"538.556","ARG_OF_PERICENTER":"75.4013","EPOCH":"2023-01-23T12:19:45.069312","DECAY_DATE":null,"RCS_SIZE":"LARGE","SITE":"AFETR","CLASSIFICATION_TYPE":"U","BSTAR":"0.00010862000000","NORAD_CAT_ID":"53397","FILE":"3758826","MEAN_MOTION_DDOT":"0.0000000000000","TIME_SYSTEM":"UTC","REF_FRAME":"TEME","GP_ID":"223613698","PERIOD":"95.438","REV_AT_EPOCH":"2574","COUNTRY_CODE":"US","APOAPSIS":"540.947","OBJECT_TYPE":"PAYLOAD","TLE_LINE2":"2 53397  53.2139 207.0712 0001728  75.4013 284.7171 15.08838022 25744","OBJECT_NAME":"STARLINK-4515"},{"OBJECT_NAME":"STARLINK-4512","COUNTRY_CODE":"US","REV_AT_EPOCH":"2579","OBJECT_TYPE":"PAYLOAD","APOAPSIS":"540.622","TLE_LINE2":"2 53398  53.2174 205.6506 0001258  98.1515 261.9620 15.08837982 25791","REF_FRAME":"TEME","TIME_SYSTEM":"UTC","GP_ID":"223621116","PERIOD":"95.438","BSTAR":"0.00014804000000","CLASSIFICATION_TYPE":"U","NORAD_CAT_ID":"53398","FILE":"3759172","MEAN_MOTION_DDOT":"0.0000000000000","ARG_OF_PERICENTER":"98.1515","EPOCH":"2023-01-23T19:50:10.859712","DECAY_DATE":null,"SITE":"AFETR","RCS_SIZE":"LARGE","ECCENTRICITY":"0.00012580","LAUNCH_DATE":"2022-08-10","PERIAPSIS":"538.881","CENTER_NAME":"EARTH","OBJECT_ID":"2022-097L","RA_OF_ASC_NODE":"205.6506","MEAN_MOTION":"15.08837982","INCLINATION":"53.2174","MEAN_ANOMALY":"261.9620","MEAN_MOTION_DOT":"0.00002069","SEMIMAJOR_AXIS":"6917.887","ELEMENT_SET_NO":"999","EPHEMERIS_TYPE":"0","TLE_LINE1":"1 53398U 22097L   23023.82651458  .00002069  00000-0  14804-3 0  9994","MEAN_ELEMENT_THEORY":"SGP4"}];
